*******************************************************************************
 Revised: April 12, 2021                Venus                           299 / 2
 
 PHYSICAL DATA (updated 2020-Oct-19):
  Vol. Mean Radius (km) =  6051.84+-0.01 Density (g/cm^3)      =  5.204
  Mass x10^23 (kg)      =    48.685      Volume (x10^10 km^3)  = 92.843
  Sidereal rot. period  =   243.018484 d Sid. Rot. Rate (rad/s)= -0.00000029924
  Mean solar day        =   116.7490 d   Equ. gravity  m/s^2   =  8.870
  Mom. of Inertia       =     0.33       Core radius (km)      = ~3200
  Geometric Albedo      =     0.65       Potential Love # k2   = ~0.25
  GM (km^3/s^2)         = 324858.592     Equatorial Radius, Re = 6051.893 km
  GM 1-sigma (km^3/s^2) =    +-0.006     Mass ratio (Sun/Venus)= 408523.72
  Atmos. pressure (bar) =  90            Max. angular diam.    =   60.2"
  Mean Temperature (K)  = 735            Visual mag. V(1,0)    =   -4.40
  Obliquity to orbit    = 177.3 deg      Hill's sphere rad.,Rp =  167.1
  Sidereal orb. per., y =   0.61519726   Orbit speed, km/s     =   35.021
  Sidereal orb. per., d = 224.70079922   Escape speed, km/s    =   10.361
                                 Perihelion  Aphelion    Mean
  Solar Constant (W/m^2)         2759         2614       2650
  Maximum Planetary IR (W/m^2)    153         153         153
  Minimum Planetary IR (W/m^2)    153         153         153
*******************************************************************************
 
 
*******************************************************************************
Ephemeris / WWW_USER Sat Sep  4 22:49:08 2021 Pasadena, USA      / Horizons    
*******************************************************************************
Target body name: Venus (299)                     {source: DE441}
Center body name: Earth (399)                     {source: DE441}
Center-site name: GEOCENTRIC
*******************************************************************************
Start time      : A.D. 2000-Jan-01 00:00:00.0000 UT      
Stop  time      : A.D. 2099-Dec-31 00:00:00.0000 UT      
Step-size       : 1440 minutes
*******************************************************************************
Target pole/equ : IAU_VENUS                       {East-longitude positive}
Target radii    : 6051.8 x 6051.8 x 6051.8 km     {Equator, meridian, pole}    
Center geodetic : 0.00000000,0.00000000,0.0000000 {E-lon(deg),Lat(deg),Alt(km)}
Center cylindric: 0.00000000,0.00000000,0.0000000 {E-lon(deg),Dxy(km),Dz(km)}
Center pole/equ : High-precision EOP model        {East-longitude positive}
Center radii    : 6378.1 x 6378.1 x 6356.8 km     {Equator, meridian, pole}    
Target primary  : Sun
Vis. interferer : MOON (R_eq= 1737.400) km        {source: DE441}
Rel. light bend : Sun, EARTH                      {source: DE441}
Rel. lght bnd GM: 1.3271E+11, 3.9860E+05 km^3/s^2                              
Atmos refraction: NO (AIRLESS)
RA format       : HMS
Time format     : CAL 
EOP file        : eop.210903.p211127                                           
EOP coverage    : DATA-BASED 1962-JAN-20 TO 2021-SEP-03. PREDICTS-> 2021-NOV-26
Units conversion: 1 au= 149597870.700 km, c= 299792.458 km/s, 1 day= 86400.0 s 
Table cut-offs 1: Elevation (-90.0deg=NO ),Airmass (>38.000=NO), Daylight (NO )
Table cut-offs 2: Solar elongation (  0.0,180.0=NO ),Local Hour Angle( 0.0=NO )
Table cut-offs 3: RA/DEC angular rate (     0.0=NO )                           
****************************************************************************************************************
 Date__(UT)__HR:MN     R.A._____(ICRF)_____DEC   APmag   S-brt            delta      deldot    S-O-T /r    S-T-O
****************************************************************************************************************
$$SOE
 2068-Jun-14 00:00     03 19 17.09 +15 44 44.3  -4.677   1.333 0.36749869938143  10.1496171  31.3617 /L 133.3945
 2068-Jun-15 00:00     03 19 54.21 +15 39 03.8  -4.688   1.350 0.37343079487862  10.3922644  32.2031 /L 131.9211
 2068-Jun-16 00:00     03 20 39.50 +15 34 20.3  -4.698   1.366 0.37949922743660  10.6218801  33.0080 /L 130.4843
 2068-Jun-17 00:00     03 21 32.77 +15 30 32.0  -4.705   1.380 0.38569657208640  10.8388138  33.7772 /L 129.0833
 2068-Jun-18 00:00     03 22 33.81 +15 27 37.3  -4.711   1.392 0.39201560912081  11.0434290  34.5116 /L 127.7171
 2068-Jun-19 00:00     03 23 42.39 +15 25 34.2  -4.715   1.403 0.39844933593557  11.2361161  35.2124 /L 126.3848
 2068-Jun-20 00:00     03 24 58.29 +15 24 20.6  -4.718   1.414 0.40499098626386  11.4173043  35.8805 /L 125.0853
 2068-Jun-21 00:00     03 26 21.30 +15 23 54.5  -4.719   1.423 0.41163405423149  11.5874664  36.5169 /L 123.8176
 2068-Jun-22 00:00     03 27 51.19 +15 24 13.8  -4.719   1.431 0.41837231913382  11.7471162  37.1228 /L 122.5806
 2068-Jun-23 00:00     03 29 27.74 +15 25 16.3  -4.717   1.438 0.42519986691574  11.8968000  37.6992 /L 121.3733
 2068-Jun-24 00:00     03 31 10.72 +15 26 59.8  -4.715   1.445 0.43211110557772  12.0370846  38.2472 /L 120.1946
 2068-Jun-25 00:00     03 32 59.91 +15 29 22.1  -4.712   1.451 0.43910077322001  12.1685442  38.7678 /L 119.0435
 2068-Jun-26 00:00     03 34 55.12 +15 32 21.1  -4.708   1.456 0.44616393848933  12.2917472  39.2621 /L 117.9188
 2068-Jun-27 00:00     03 36 56.12 +15 35 54.6  -4.703   1.461 0.45329599367953  12.4072440  39.7311 /L 116.8197
 2068-Jun-28 00:00     03 39 02.72 +15 40 00.5  -4.697   1.465 0.46049264098479  12.5155558  40.1756 /L 115.7451
 2068-Jun-29 00:00     03 41 14.73 +15 44 36.6  -4.691   1.468 0.46774987275133  12.6171649  40.5968 /L 114.6940
 2068-Jun-30 00:00     03 43 31.98 +15 49 41.1  -4.685   1.472 0.47506394716638  12.7125089  40.9954 /L 113.6656
 2068-Jul-01 00:00     03 45 54.27 +15 55 11.7  -4.677   1.474 0.48243136143157  12.8019780  41.3723 /L 112.6589
 2068-Jul-02 00:00     03 48 21.46 +16 01 06.7  -4.670   1.477 0.48984882478300  12.8859169  41.7285 /L 111.6732
 2068-Jul-03 00:00     03 50 53.38 +16 07 24.1  -4.662   1.478 0.49731323349682  12.9646297  42.0646 /L 110.7075
 2068-Jul-04 00:00     03 53 29.89 +16 14 01.9  -4.653   1.480 0.50482164933063  13.0383866  42.3814 /L 109.7611
 2068-Jul-05 00:00     03 56 10.85 +16 20 58.4  -4.645   1.481 0.51237128193543  13.1074307  42.6796 /L 108.8333
 2068-Jul-06 00:00     03 58 56.11 +16 28 11.8  -4.636   1.482 0.51995947493226  13.1719837  42.9600 /L 107.9234
 2068-Jul-07 00:00     04 01 45.56 +16 35 40.4  -4.627   1.483 0.52758369474250  13.2322497  43.2233 /L 107.0306
 2068-Jul-08 00:00     04 04 39.08 +16 43 22.4  -4.617   1.483 0.53524152092085  13.2884164  43.4700 /L 106.1544
 2068-Jul-09 00:00     04 07 36.55 +16 51 16.2  -4.608   1.483 0.54293063661120  13.3406546  43.7007 /L 105.2941
 2068-Jul-10 00:00     04 10 37.85 +16 59 20.2  -4.598   1.483 0.55064881776090  13.3891141  43.9161 /L 104.4491
 2068-Jul-11 00:00     04 13 42.90 +17 07 32.7  -4.588   1.483 0.55839391991179  13.4339199  44.1168 /L 103.6189
 2068-Jul-12 00:00     04 16 51.59 +17 15 52.3  -4.578   1.483 0.56616386184277  13.4751652  44.3032 /L 102.8029
 2068-Jul-13 00:00     04 20 03.82 +17 24 17.4  -4.568   1.482 0.57395660625062  13.5129083  44.4759 /L 102.0007
 2068-Jul-14 00:00     04 23 19.51 +17 32 46.5  -4.558   1.481 0.58177013912603  13.5471723  44.6353 /L 101.2117
 2068-Jul-15 00:00     04 26 38.58 +17 41 18.3  -4.547   1.480 0.58960245130367  13.5779530  44.7820 /L 100.4354
 2068-Jul-16 00:00     04 30 00.93 +17 49 51.3  -4.537   1.479 0.59745152703918  13.6052352  44.9164 /L  99.6715
 2068-Jul-17 00:00     04 33 26.49 +17 58 24.1  -4.527   1.477 0.60531534422943  13.6290161  45.0390 /L  98.9194
 2068-Jul-18 00:00     04 36 55.18 +18 06 55.4  -4.517   1.476 0.61319188825378  13.6493280  45.1501 /L  98.1788
 2068-Jul-19 00:00     04 40 26.91 +18 15 23.8  -4.506   1.474 0.62107917711946  13.6662530  45.2504 /L  97.4492
 2068-Jul-20 00:00     04 44 01.62 +18 23 48.1  -4.496   1.472 0.62897529183094  13.6799265  45.3400 /L  96.7302
 2068-Jul-21 00:00     04 47 39.21 +18 32 07.1  -4.486   1.471 0.63687840482821  13.6905278  45.4195 /L  96.0215
 2068-Jul-22 00:00     04 51 19.60 +18 40 19.5  -4.476   1.469 0.64478680123269  13.6982651  45.4893 /L  95.3226
 2068-Jul-23 00:00     04 55 02.73 +18 48 24.1  -4.466   1.466 0.65269889093330  13.7033598  45.5497 /L  94.6331
 2068-Jul-24 00:00     04 58 48.51 +18 56 19.8  -4.456   1.464 0.66061321230600  13.7060338  45.6011 /L  93.9528
 2068-Jul-25 00:00     05 02 36.86 +19 04 05.5  -4.446   1.462 0.66852842965746  13.7065001  45.6437 /L  93.2812
 2068-Jul-26 00:00     05 06 27.72 +19 11 40.1  -4.436   1.459 0.67644332650641  13.7049578  45.6781 /L  92.6179
 2068-Jul-27 00:00     05 10 21.01 +19 19 02.5  -4.426   1.457 0.68435679623690  13.7015880  45.7043 /L  91.9628
 2068-Jul-28 00:00     05 14 16.66 +19 26 11.7  -4.416   1.454 0.69226783108118  13.6965515  45.7228 /L  91.3154
 2068-Jul-29 00:00     05 18 14.61 +19 33 06.8  -4.407   1.452 0.70017551007543  13.6899881  45.7338 /L  90.6756
 2068-Jul-30 00:00     05 22 14.78 +19 39 46.8  -4.397   1.449 0.70807898660371  13.6820156  45.7375 /L  90.0429
 2068-Jul-31 00:00     05 26 17.11 +19 46 10.7  -4.388   1.446 0.71597747622359  13.6727317  45.7342 /L  89.4172
 2068-Aug-01 00:00     05 30 21.55 +19 52 17.7  -4.378   1.443 0.72387024550122  13.6622160  45.7242 /L  88.7981
 2068-Aug-02 00:00     05 34 28.02 +19 58 06.8  -4.369   1.440 0.73175660245645  13.6505330  45.7076 /L  88.1856
 2068-Aug-03 00:00     05 38 36.47 +20 03 37.3  -4.360   1.437 0.73963588893755  13.6377359  45.6846 /L  87.5792
 2068-Aug-04 00:00     05 42 46.85 +20 08 48.2  -4.351   1.434 0.74750747486360  13.6238693  45.6555 /L  86.9789
 2068-Aug-05 00:00     05 46 59.09 +20 13 38.9  -4.342   1.431 0.75537075388307  13.6089708  45.6204 /L  86.3845
 2068-Aug-06 00:00     05 51 13.13 +20 18 08.5  -4.333   1.428 0.76322513963376  13.5930719  45.5795 /L  85.7957
